[{"OBJECT_NAME":"STARLINK-30519","OBJECT_ID":"2023-151X","EPOCH":"2026-03-09T22:00:01.999584","MEAN_MOTION":15.26728117,"ECCENTRICITY":0.00020054,"INCLINATION":43.0023,"RA_OF_ASC_NODE":349.4808,"ARG_OF_PERICENTER":274.1728,"MEAN_ANOMALY":210.6562,"EPHEMERIS_TYPE":0,"CLASSIFICATION_TYPE":"U","NORAD_CAT_ID":57985,"ELEMENT_SET_NO":999,"REV_AT_EPOCH":578,"BSTAR":0.00017509394,"MEAN_MOTION_DOT":4.438e-5,"MEAN_MOTION_DDOT":0},{"OBJECT_NAME":"CZ-4B R\/B","OBJECT_ID":"2010-051C","EPOCH":"2026-03-09T16:48:37.977120","MEAN_MOTION":15.17426017,"ECCENTRICITY":0.00758037,"INCLINATION":97.7974,"RA_OF_ASC_NODE":110.8647,"ARG_OF_PERICENTER":95.044,"MEAN_ANOMALY":265.9451,"EPHEMERIS_TYPE":0,"CLASSIFICATION_TYPE":"U","NORAD_CAT_ID":37181,"ELEMENT_SET_NO":999,"REV_AT_EPOCH":84355,"BSTAR":0.00029718512,"MEAN_MOTION_DOT":6.328e-5,"MEAN_MOTION_DDOT":0}]
